COSMOS 2433 (720)       
1 32275U 07052A   23095.17811169 -.00000058  00000+0  00000+0 0  9998
2 32275  66.0529 354.9877 0002643 291.6035 210.7243  2.13104032120180
COSMOS 2432 (719)       
1 32276U 07052B   23095.10529101 -.00000058  00000+0  00000+0 0  9994
2 32276  66.0678 355.0968 0011525 333.3680  60.5927  2.13103339120187
COSMOS 2434 (721)       
1 32393U 07065A   23095.56002922  .00000012  00000+0  00000+0 0  9994
2 32393  64.3482 231.4662 0004347  81.0288 244.9105  2.13103133118897
COSMOS 2436 (723)       
1 32395U 07065C   23095.50300962  .00000012  00000+0  00000+0 0  9995
2 32395  64.3556 231.5284 0016281   7.7047  50.1170  2.13102947118835
COSMOS 2456 (730)       
1 36111U 09070A   23095.39910091  .00000084  00000+0  00000+0 0  9999
2 36111  64.4345 111.0240 0005918 298.8656  65.0043  2.13099121103567
COSMOS 2457 (733)       
1 36112U 09070B   23095.29612719  .00000084  00000+0  00000+0 0  9995
2 36112  64.4220 110.8973 0004192 197.7729 216.7041  2.13101308103565
COSMOS 2460 (732)       
1 36402U 10007C   23095.42022242 -.00000056  00000+0  00000+0 0  9990
2 36402  65.9170 353.7189 0002275   7.3553 128.9908  2.13106327101914
COSMOS 2476 (744)       
1 37867U 11064A   23094.57063301  .00000087  00000+0  00000+0 0  9999
2 37867  64.7205 112.5210 0023948 240.3328 116.0011  2.13101781 88883
COSMOS 2477 (745)       
1 37868U 11064B   23095.27826278  .00000086  00000+0  00000+0 0  9997
2 37868  64.7283 112.5658 0021255 241.5135 115.6352  2.13101605 88859
COSMOS 2475 (743)       
1 37869U 11064C   23091.72500781  .00000077  00000+0  00000+0 0  9992
2 37869  64.7337 112.6987 0025931 256.1479 213.3451  2.13101763 88798
COSMOS 2485 (747)       
1 39155U 13019A   23095.48780685  .00000086  00000+0  00000+0 0  9994
2 39155  64.8827 112.9824 0024197 236.2931 148.0249  2.13101828 77385
COSMOS 2492 (754)       
1 39620U 14012A   23095.63526093 -.00000055  00000+0  00000+0 0  9990
2 39620  65.8021 353.3533 0014493 328.0305 203.7062  2.13103169 70330
COSMOS 2500 (755)       
1 40001U 14032A   23095.64900608 -.00000055  00000+0  00000+0 0  9996
2 40001  65.7424 353.1933 0004327 212.4483 187.6943  2.13102451 68553
COSMOS 2501 (702K)      
1 40315U 14075A   23095.44115267  .00000010  00000+0  00000+0 0  9998
2 40315  63.6518 230.9578 0017853 204.6914 205.3892  2.13101426 64951
COSMOS 2514 (751)       
1 41330U 16008A   23094.88714013 -.00000058  00000+0  00000+0 0  9998
2 41330  65.5399 352.8369 0007961 215.2472 144.7496  2.13102716 55707
COSMOS 2516 (753)       
1 41554U 16032A   23095.47518840  .00000011  00000+0  00000+0 0  9997
2 41554  63.8788 231.3155 0014423 212.2907 147.5863  2.13106367 53324
COSMOS 2522 (752)       
1 42939U 17055A   23095.12712176  .00000008  00000+0  00000+0 0  9997
2 42939  64.1131 231.8081 0005805 234.3511  70.4706  2.13101972 43068
COSMOS 2527 (756)       
1 43508U 18053A   23095.08610446  .00000087  00000+0  00000+0 0  9998
2 43508  65.0439 113.0570 0009939 241.2501  64.0349  2.13102488 37354
COSMOS 2529 (757)       
1 43687U 18086A   23095.33364750  .00000010  00000+0  00000+0 0  9990
2 43687  64.3255 232.1961 0007427 267.2347 151.5012  2.13102065 34383
COSMOS 2534 (758)       
1 44299U 19030A   23095.29755240  .00000010  00000+0  00000+0 0  9993
2 44299  64.3999 232.1079 0010072 291.8328 233.5418  2.13102048 30029
COSMOS 2544 (759)       
1 44850U 19088A   23095.18430517  .00000088  00000+0  16595+1 0  9996
2 44850  65.0299 112.8998 0014888 260.8092 163.0338  2.13102272 25795
COSMOS 2545 (760)       
1 45358U 20018A   23095.43888792 -.00000057  00000+0  00000+0 0  9995
2 45358  64.8803 353.1862 0008253 260.1390 208.1512  2.13102646 23754
COSMOS 2547 (705K)      
1 46805U 20075A   23095.48106194  .00000012  00000+0  00000+0 0  9990
2 46805  64.6284 231.6128 0005690 237.9622 116.8640  2.13103111 18995
COSMOS 2557 (706K)      
1 52984U 22075A   23095.08728306 -.00000061  00000+0  10000-3 0  9998
2 52984  64.7903 355.3743 0012420 289.4040 359.6777  2.13101723  5789
COSMOS 2559 (707K)      
1 54031U 22130A   23095.01661882 -.00000062  00000+0  00000+0 0  9999
2 54031  64.7616 355.5106 0005067 235.5395  44.3528  2.13100930  3761
COSMOS 2564 (761)       
1 54377U 22161A   23095.43458964  .00000012  00000+0  00000+0 0  9991
2 54377  64.7681 231.6403 0007634 211.5799 239.8034  2.13102105  2728
